KUIPER-00074            
1 64821U 25151F   25352.26232773  .00011945  00000+0  15918-2 0  9999
2 64821  51.9018 290.6614 0013757   3.9804 356.1265 14.79915042 23388
KUIPER-00075            
1 64822U 25151G   25352.16130124  .00020350  00000+0  51474-3 0  9994
2 64822  51.8745 257.8289 0003601  16.5168 343.5936 15.39743974 23833
KUIPER-00076            
1 64823U 25151H   25352.25963641  .00007176  00000+0  96993-3 0  9999
2 64823  51.8991 293.1642 0005272   4.0802 356.0202 14.79905788 23354
KUIPER-00077            
1 64824U 25151J   25352.11905422  .00001597  00000+0  23855-3 0  9996
2 64824  51.9037 298.7932 0006447 325.0848  34.9691 14.79938869 23261
KUIPER-00078            
1 64825U 25151K   25352.22319720  .00004818  00000+0  66014-3 0  9992
2 64825  51.9015 295.8285 0008755  20.9531 339.1789 14.79953255 23311
KUIPER-00079            
1 64826U 25151L   25352.25143292 -.00001210  00000+0 -12933-3 0  9991
2 64826  51.8994 300.6869 0011759 333.2465  26.7889 14.79891424 24448
KUIPER-00080            
1 64827U 25151M   25352.15023867  .00004174  00000+0  57649-3 0  9999
2 64827  51.9009 301.1423 0005979 352.0339   8.0528 14.79912651 23230
KUIPER-00082            
1 64828U 25151N   25352.26491462 -.00000550  00000+0 -42904-4 0  9997
2 64828  51.9027 288.1493 0005346  21.2814 338.8370 14.79946179 23425
KUIPER-00083            
1 64829U 25151P   25352.25680399  .00002950  00000+0  41541-3 0  9995
2 64829  51.9008 295.6794 0011363 333.4636  26.5744 14.79968174 24503
KUIPER-00084            
1 64830U 25151Q   25352.24550722  .00003411  00000+0  47489-3 0  9992
2 64830  51.9018 305.7102 0011801 307.6068  52.3822 14.80038440 23173
KUIPER-00085            
1 64831U 25151R   25352.02855506  .00000593  00000+0  10691-3 0  9990
2 64831  51.9056 289.2079 0007873 349.1745  10.9046 14.79955256 23384
KUIPER-00086            
1 64832U 25151S   25352.22038076  .00004796  00000+0  65764-3 0  9998
2 64832  51.9019 298.3481 0010775 332.6527  27.3867 14.79916953 23274
KUIPER-00087            
1 64833U 25151T   25352.23838222  .00003101  00000+0  43421-3 0  9996
2 64833  51.9002 280.7514 0001217  40.1623 319.9430 14.80075599 23515
KUIPER-00089            
1 64834U 25151U   25352.03135749  .00008920  00000+0  11970-2 0  9996
2 64834  51.9014 286.6791 0002305  62.7883 297.3314 14.79952572 23421
KUIPER-00090            
1 64835U 25151V   25352.17398716  .00002324  00000+0  35890-3 0  9997
2 64835  51.8990 277.8950 0004315  82.4691 277.6760 14.76778057 23553
KUIPER-00091            
1 64836U 25151W   25351.96651035  .00003461  00000+0  48249-3 0  9995
2 64836  51.9005 284.4718 0008576  27.1364 333.0045 14.79955860 23447
KUIPER-00092            
1 64837U 25151X   25352.33335648  .00054003  00000+0  72714-2 0  9998
2 64837  51.9006 290.3326 0007059 337.9191 228.3412 14.78649811  3868
KUIPER-00093            
1 64838U 25151Y   25352.22577970 -.00021540  00000+0 -28010-2 0  9995
2 64838  51.9001 293.3106 0014322 340.9224  19.1200 14.79916373 23342
KUIPER-00094            
1 64839U 25151Z   25352.10295391  .00007924  00000+0  57336-3 0  9999
2 64839  51.8899 277.6575 0004406  14.7978 345.3123 15.04829625 23559
KUIPER-00081            
1 65132U 25171A   25352.33335648  .00036827  00000+0  34340-2 0  9996
2 65132  51.8938 148.7748 0002599 224.0956 264.0688 14.93880174  4974
KUIPER-00088            
1 65133U 25171B   25352.21982158  .00001926  00000+0  30289-3 0  9999
2 65133  51.8988 166.1016 0007879 206.0484 154.0081 14.76733734 20720
KUIPER-00095            
1 65134U 25171C   25352.18353014 -.00079754  00000+0 -70752-2 0  9993
2 65134  51.8894 150.7402 0005321 206.7942 153.2753 14.96087320 20936
KUIPER-00096            
1 65135U 25171D   25350.75052593 -.00006541  00000+0 -82868-3 0  9999
2 65135  51.8982 164.8408 0010814 228.5507 131.4527 14.79928288 20619
KUIPER-00097            
1 65136U 25171E   25352.16607780 -.00003750  00000+0 -46212-3 0  9993
2 65136  51.8966 161.1954 0010172 239.4823 120.5136 14.79954214 20777
KUIPER-00098            
1 65137U 25171F   25351.89323963  .00002406  00000+0  34454-3 0  9991
2 65137  51.8981 164.7893 0007826 215.9686 144.0750 14.79945688 20053
KUIPER-00099            
1 65138U 25171G   25352.33335648  .00018186  00000+0  23608-2 0  9995
2 65138  51.9002 152.8130 0001575 149.3057 156.8593 14.80767450  5553
KUIPER-00100            
1 65139U 25171H   25352.33335648  .00023069  00000+0  27509-2 0  9996
2 65139  51.8992 150.3764 0000983  46.8653  25.7036 14.84171447  4635
KUIPER-00102            
1 65140U 25171J   25352.33335648  .00009837  00000+0  13106-2 0  9993
2 65140  51.8963 152.7972 0000538 228.1015 285.9654 14.80152093  4712
KUIPER-00103            
1 65141U 25171K   25352.18910124 -.00000897  00000+0 -88483-4 0  9996
2 65141  51.8989 170.9743 0005836 213.9721 146.0868 14.79910820 20643
KUIPER-00104            
1 65142U 25171L   25352.33335648  .00038416  00000+0  54333-2 0  9997
2 65142  51.8990 156.8376 0003438 261.1577 201.1284 14.76738198  5620
KUIPER-00105            
1 65143U 25171M   25352.22833495  .00002308  00000+0  33155-3 0  9990
2 65143  51.8980 165.8724 0012516 191.2775 168.7909 14.79942853 20725
KUIPER-00106            
1 65144U 25171N   25351.79519730  .00003399  00000+0  31781-3 0  9999
2 65144  51.8916 166.9627 0009414 184.5723 175.5162 14.96544830 20673
KUIPER-00107            
1 65145U 25171P   25352.33335648  .00024775  00000+0  23595-2 0  9999
2 65145  51.8925 148.4965 0007526 249.7397 247.1193 14.93227311  4296
KUIPER-00108            
1 65146U 25171Q   25351.79464323  .00002458  00000+0  35103-3 0  9995
2 65146  51.9001 162.7287 0008193 197.4417 162.6265 14.79982176 20731
KUIPER-00109            
1 65147U 25171R   25352.17152776  .00002792  00000+0  39474-3 0  9991
2 65147  51.9001 156.0054 0011916 214.8977 145.1205 14.79969955 20855
KUIPER-00110            
1 65148U 25171S   25352.33335648  .00036087  00000+0  47348-2 0  9993
2 65148  51.8971 167.8993 0002694 228.7913 163.5794 14.79954179  2130
KUIPER-00111            
1 65149U 25171T   25351.81504880  .00004041  00000+0  55867-3 0  9993
2 65149  51.8971 175.1184 0008635 200.1875 159.8747 14.79937856 20552
KUIPER-00112            
1 65150U 25171U   25351.73262248  .00002428  00000+0  34711-3 0  9997
2 65150  51.9006 158.0043 0009063 248.6033 111.3962 14.79970592 20788
KUIPER-00114            
1 65151U 25171V   25352.21743871  .00002303  00000+0  33102-3 0  9993
2 65151  51.8983 175.8754 0006322 185.5717 174.5176 14.79943084 20572
KUIPER-00115            
1 65152U 25171W   25352.22557706  .00002323  00000+0  33373-3 0  9997
2 65152  51.8990 168.3206 0009611 212.1775 147.8601 14.79922796 20680
KUIPER-00116            
1 65153U 25171X   25351.78131672  .00002824  00000+0  39943-3 0  9993
2 65153  51.8976 175.3295 0010043 175.0048 185.1017 14.79914618 20547
KUIPER-00118            
1 65154U 25171Y   25352.25125220 -.00003323  00000+0 -40717-3 0  9997
2 65154  51.8993 175.7061 0001558 151.8596 208.2451 14.79922103 20584
KUIPER-00119            
1 65155U 25171Z   25352.19717809  .00002254  00000+0  32486-3 0  9995
2 65155  51.8987 163.5275 0008073 206.6751 153.3797 14.79911223 20743
KUIPER-00120            
1 65762U 25217A   25352.18143373  .00002460  00000+0  33425-3 0  9991
2 65762  51.9012  52.2990 0011859  26.8153 333.3421 14.82108897 12686
KUIPER-00132            
1 65763U 25217B   25352.29268097  .00015971  00000+0  43602-3 0  9994
2 65763  51.8627  37.8868 0007423  36.2724 323.8765 15.37553708 12896
KUIPER-00133            
1 65764U 25217C   25352.19764145 -.00001281  00000+0 -13848-3 0  9999
2 65764  51.9054  53.4526 0011742  51.8836 308.3183 14.79914544 12675
KUIPER-00139            
1 65765U 25217D   25351.87042858  .00005614  00000+0  44688-3 0  9992
2 65765  51.8863  48.4525 0008464  38.9527 321.2053 15.01715803 12714
KUIPER-00142            
1 65766U 25217E   25352.33335648 -.01306944  00000+0 -73991-1 0  9997
2 65766  51.8806  38.6507 0003829  72.2177  92.9742 15.15872761  5671
KUIPER-00145            
1 65767U 25217F   25352.33335648 -.00735221  00000+0 -51693-1 0  9996
2 65767  51.9011  40.1333 0006345  28.1133  44.9094 15.07351446  4897
KUIPER-00147            
1 65768U 25217G   25352.33335648 -.00037562  00000+0 -29768-2 0  9999
2 65768  51.8899  42.2498 0010323  47.4609  36.1273 15.00019435  5502
KUIPER-00148            
1 65769U 25217H   25352.33335648 -.00022304  00000+0 -12816-2 0  9994
2 65769  51.8768  41.5996 0009770  66.7115  72.3282 15.11628391  5335
KUIPER-00150            
1 65770U 25217J   25350.50412299  .00002473  00000+0  35379-3 0  9994
2 65770  51.9015  58.3586 0000688  81.0086 279.0955 14.79876963 12457
KUIPER-00151            
1 65771U 25217K   25352.33335648 -.00082465  00000+0 -80970-2 0  9997
2 65771  51.8931  43.2865 0003735  63.3385   4.6851 14.92128842  5313
KUIPER-00152            
1 65772U 25217L   25352.33335648 -.01223610  00000+0 -44011-1 0  9993
2 65772  51.8758  36.9941 0003516  23.3488 221.2713 15.30831813  3406
KUIPER-00153            
1 65773U 25217M   25352.18701567  .00009107  00000+0  55086-3 0  9990
2 65773  51.8786  46.8052 0013149  39.6146 320.5788 15.11253788 12767
KUIPER-00155            
1 65774U 25217N   25352.15928162  .00026205  00000+0  70575-3 0  9998
2 65774  51.8661  38.5125 0008878  40.0071 320.1569 15.37628766 12870
KUIPER-00156            
1 65775U 25217P   25352.14753132  .00037826  00000+0  95774-3 0  9990
2 65775  51.8727  37.7441 0003169  29.5834 330.5332 15.39370815 12888
KUIPER-00158            
1 65776U 25217Q   25352.33335648 -.00032199  00000+0 -38511-2 0  9995
2 65776  51.8988  45.5282 0005410  41.2856   8.9254 14.83669020  5107
KUIPER-00163            
1 65777U 25217R   25352.33335648 -.00048652  00000+0 -62903-2 0  9999
2 65777  51.8980  47.7717 0001675  62.1126 137.2538 14.80648950  4935
